GLOBALSTAR M023         
1 25621U 99004A   25332.14838990 -.00000090  00000+0  79780-4 0  9999
2 25621  52.0112 274.1723 0010255 126.2999 254.2117 12.62509863236449
GLOBALSTAR M040         
1 25622U 99004B   25332.21306396 -.00000075  00000+0  16213-3 0  9992
2 25622  51.9928 278.3718 0001455  39.2705  98.7087 12.62023700235967
GLOBALSTAR M036         
1 25623U 99004C   25331.86972630 -.00000048  00000+0  51004-3 0  9990
2 25623  51.9932 168.8830 0010860   9.7288   3.7524 11.86618029198418
GLOBALSTAR M038         
1 25624U 99004D   25331.69062804 -.00000063  00000+0  26142-3 0  9997
2 25624  51.9989 320.6967 0002087  35.8831 136.4299 12.32536455222534
GLOBALSTAR M022         
1 25649U 99012A   25332.09526169 -.00000071  00000+0  18614-3 0  9991
2 25649  52.0019 205.3227 0003296 118.8880  35.0180 12.02507303196095
GLOBALSTAR M041         
1 25650U 99012B   25332.01382988 -.00000060  00000+0  32559-3 0  9996
2 25650  52.0013  91.9863 0000405 266.4134  93.6657 11.96681121197898
GLOBALSTAR M046         
1 25651U 99012C   25331.80874836  .00000056  00000+0  15992-2 0  9996
2 25651  52.0023 150.2616 0001587 184.2196 189.0631 12.09417465203468
GLOBALSTAR M037         
1 25652U 99012D   25332.21676088 -.00000022  00000+0  45323-3 0  9998
2 25652  52.0025  44.5208 0002286 178.4910 217.1434 12.62457085231993
